{"type": "FeatureCollection", "features": [ {"type": "Feature", "properties": {"norad_id": 44622, "name": "GAOFEN-10R", "group": "resource", "lat": 53.06682300859064, "lon": -77.86601732615904, "alt_km": 610.0725389371019, "timestamp": "2025-12-11T10:53:15.542685+00:00", "meta": {"OBJECT_NAME": "GAOFEN-10R", "OBJECT_ID": "2019-066A", "EPOCH": "2025-12-11T04:10:04.243872", "MEAN_MOTION": 14.82783564, "ECCENTRICITY": 0.0007955, "INCLINATION": 98.0276, "RA_OF_ASC_NODE": 292.6737, "ARG_OF_PERICENTER": 46.3793, "MEAN_ANOMALY": 313.8079, "EPHEMERIS_TYPE": 0, "CLASSIFICATION_TYPE": "U", "NORAD_CAT_ID": 44622, "ELEMENT_SET_NO": 999, "REV_AT_EPOCH": 33451, "BSTAR": 0.00032966, "MEAN_MOTION_DOT": 2.612e-05, "MEAN_MOTION_DDOT": 0}, "tle": {"line1": "1 44622U 19066A   25345.17366023  .00002612  00000+0  32966-3 0  9996", "line2": "2 44622  98.0276 292.6737 0007955  46.3793 313.8079 14.82783564334511"}}, "geometry": {"type": "Point", "coordinates": [-77.86601732615904, 53.06682300859064]}}, {"type": "Feature", "properties": {"norad_id": 44804, "name": "CARTOSAT-3", "group": "resource", "lat": 48.30802420231822, "lon": 36.59614403211844, "alt_km": 496.380535073361, "timestamp": "2025-12-11T10:53:15.542696+00:00", "meta": {"OBJECT_NAME": "CARTOSAT-3", "OBJECT_ID": "2019-081A", "EPOCH": "2025-12-11T04:21:03.837888", "MEAN_MOTION": 15.19353222, "ECCENTRICITY": 0.0013941, "INCLINATION": 97.4581, "RA_OF_ASC_NODE": 44.7845, "ARG_OF_PERICENTER": 92.0701, "MEAN_ANOMALY": 268.213, "EPHEMERIS_TYPE": 0, "CLASSIFICATION_TYPE": "U", "NORAD_CAT_ID": 44804, "ELEMENT_SET_NO": 999, "REV_AT_EPOCH": 33492, "BSTAR": 0.00041547, "MEAN_MOTION_DOT": 8.74e-05, "MEAN_MOTION_DDOT": 0}, "tle": {"line1": "1 44804U 19081A   25345.18129442  .00008740  00000+0  41547-3 0  9991", "line2": "2 44804  97.4581  44.7845 0013941  92.0701 268.2130 15.19353222334921"}}, "geometry": {"type": "Point", "coordinates": [36.59614403211844, 48.30802420231822]}}, {"type": "Feature", "properties": {"norad_id": 44819, "name": "GAOFEN-12 01", "group": "resource", "lat": -29.005193333915567, "lon": -3.865841248991762, "alt_km": 633.143722306032, "timestamp": "2025-12-11T10:53:15.542707+00:00", "meta": {"OBJECT_NAME": "GAOFEN-12 01", "OBJECT_ID": "2019-082A", "EPOCH": "2025-12-11T04:31:55.712928", "MEAN_MOTION": 14.80654316, "ECCENTRICITY": 0.0001243, "INCLINATION": 97.8127, "RA_OF_ASC_NODE": 351.5105, "ARG_OF_PERICENTER": 243.6423, "MEAN_ANOMALY": 116.4662, "EPHEMERIS_TYPE": 0, "CLASSIFICATION_TYPE": "U", "NORAD_CAT_ID": 44819, "ELEMENT_SET_NO": 999, "REV_AT_EPOCH": 32627, "BSTAR": 0.00010913, "MEAN_MOTION_DOT": 7.88e-06, "MEAN_MOTION_DDOT": 0}, "tle": {"line1": "1 44819U 19082A   25345.18883927  .00000788  00000+0  10913-3 0  9990", "line2": "2 44819  97.8127 351.5105 0001243 243.6423 116.4662 14.80654316326270"}}, "geometry": {"type": "Point", "coordinates": [-3.865841248991762, -29.005193333915567]}}, {"type": "Feature", "properties": {"norad_id": 44873, "name": "CSG-1", "group": "resource", "lat": 72.85384908443176, "lon": 140.11960604855506, "alt_km": 614.5208203548364, "timestamp": "2025-12-11T10:53:15.542718+00:00", "meta": {"OBJECT_NAME": "CSG-1", "OBJECT_ID": "2019-092A", "EPOCH": "2025-12-11T04:04:14.964960", "MEAN_MOTION": 14.82160692, "ECCENTRICITY": 0.0001444, "INCLINATION": 97.881, "RA_OF_ASC_NODE": 166.5175, "ARG_OF_PERICENTER": 85.0167, "MEAN_ANOMALY": 275.1211, "EPHEMERIS_TYPE": 0, "CLASSIFICATION_TYPE": "U", "NORAD_CAT_ID": 44873, "ELEMENT_SET_NO": 999, "REV_AT_EPOCH": 32362, "BSTAR": 0.00013075, "MEAN_MOTION_DOT": 9.89e-06, "MEAN_MOTION_DDOT": 0}, "tle": {"line1": "1 44873U 19092A   25345.16961765  .00000989  00000+0  13075-3 0  9991", "line2": "2 44873  97.8810 166.5175 0001444  85.0167 275.1211 14.82160692323626"}}, "geometry": {"type": "Point", "coordinates": [140.11960604855506, 72.85384908443176]}}, {"type": "Feature", "properties": {"norad_id": 46277, "name": "NEMO-HD", "group": "resource", "lat": -35.02517298954306, "lon": 49.66583155570856, "alt_km": 451.6874966412506, "timestamp": "2025-12-11T10:53:15.542729+00:00", "meta": {"OBJECT_NAME": "NEMO-HD", "OBJECT_ID": "2020-061F", "EPOCH": "2025-12-11T04:48:14.705280", "MEAN_MOTION": 15.40274146, "ECCENTRICITY": 0.0001987, "INCLINATION": 97.2212, "RA_OF_ASC_NODE": 44.3172, "ARG_OF_PERICENTER": 58.0601, "MEAN_ANOMALY": 302.0838, "EPHEMERIS_TYPE": 0, "CLASSIFICATION_TYPE": "U", "NORAD_CAT_ID": 46277, "ELEMENT_SET_NO": 999, "REV_AT_EPOCH": 29300, "BSTAR": 0.0004022, "MEAN_MOTION_DOT": 0.00016125, "MEAN_MOTION_DDOT": 0}, "tle": {"line1": "1 46277U 20061F   25345.20017020  .00016125  00000+0  40220-3 0  9991", "line2": "2 46277  97.2212  44.3172 0001987  58.0601 302.0838 15.40274146293009"}}, "geometry": {"type": "Point", "coordinates": [49.66583155570856, -35.02517298954306]}}, {"type": "Feature", "properties": {"norad_id": 46984, "name": "SENTINEL-6A", "group": "resource", "lat": -59.69853228785107, "lon": 115.43627159220074, "alt_km": 1338.3808618384846, "timestamp": "2025-12-11T10:53:15.542740+00:00", "meta": {"OBJECT_NAME": "SENTINEL-6A", "OBJECT_ID": "2020-086A", "EPOCH": "2025-12-10T18:23:32.214912", "MEAN_MOTION": 12.80930554, "ECCENTRICITY": 0.0007731, "INCLINATION": 66.039, "RA_OF_ASC_NODE": 166.4071, "ARG_OF_PERICENTER": 269.1652, "MEAN_ANOMALY": 90.8477, "EPHEMERIS_TYPE": 0, "CLASSIFICATION_TYPE": "U", "NORAD_CAT_ID": 46984, "ELEMENT_SET_NO": 999, "REV_AT_EPOCH": 23619, "BSTAR": 9.1963369e-05, "MEAN_MOTION_DOT": -4e-07, "MEAN_MOTION_DDOT": 0}, "tle": {"line1": "1 46984U 20086A   25344.76634508 -.00000040  00000+0  91963-4 0  9990", "line2": "2 46984  66.0390 166.4071 0007731 269.1652  90.8477 12.80930554236194"}}, "geometry": {"type": "Point", "coordinates": [115.43627159220074, -59.69853228785107]}}, {"type": "Feature", "properties": {"norad_id": 48079, "name": "GAOFEN-12 02", "group": "resource", "lat": -17.986799780305567, "lon": -17.921623341268294, "alt_km": 633.5169630430601, "timestamp": "2025-12-11T10:53:15.542750+00:00", "meta": {"OBJECT_NAME": "GAOFEN-12 02", "OBJECT_ID": "2021-026A", "EPOCH": "2025-12-11T04:28:55.389216", "MEAN_MOTION": 14.80672026, "ECCENTRICITY": 0.0003512, "INCLINATION": 97.9851, "RA_OF_ASC_NODE": 339.2007, "ARG_OF_PERICENTER": 104.2697, "MEAN_ANOMALY": 255.8905, "EPHEMERIS_TYPE": 0, "CLASSIFICATION_TYPE": "U", "NORAD_CAT_ID": 48079, "ELEMENT_SET_NO": 999, "REV_AT_EPOCH": 25394, "BSTAR": 0.00011487, "MEAN_MOTION_DOT": 8.3e-06, "MEAN_MOTION_DDOT": 0}, "tle": {"line1": "1 48079U 21026A   25345.18675219  .00000830  00000+0  11487-3 0  9991", "line2": "2 48079  97.9851 339.2007 0003512 104.2697 255.8905 14.80672026253946"}}, "geometry": {"type": "Point", "coordinates": [-17.921623341268294, -17.986799780305567]}}, {"type": "Feature", "properties": {"norad_id": 48268, "name": "PLEIADES NEO 3", "group": "resource", "lat": 43.74780626281387, "lon": 50.28025784476658, "alt_km": 619.709950789922, "timestamp": "2025-12-11T10:53:15.542763+00:00", "meta": {"OBJECT_NAME": "PLEIADES NEO 3", "OBJECT_ID": "2021-034A", "EPOCH": "2025-12-11T04:12:19.535040", "MEAN_MOTION": 14.81677914, "ECCENTRICITY": 0.000138, "INCLINATION": 97.8943, "RA_OF_ASC_NODE": 57.6383, "ARG_OF_PERICENTER": 91.5102, "MEAN_ANOMALY": 268.6269, "EPHEMERIS_TYPE": 0, "CLASSIFICATION_TYPE": "U", "NORAD_CAT_ID": 48268, "ELEMENT_SET_NO": 999, "REV_AT_EPOCH": 24981, "BSTAR": 0.00029208, "MEAN_MOTION_DOT": 2.247e-05, "MEAN_MOTION_DDOT": 0}, "tle": {"line1": "1 48268U 21034A   25345.17522610  .00002247  00000+0  29208-3 0  9999", "line2": "2 48268  97.8943  57.6383 0001380  91.5102 268.6269 14.81677914249813"}}, "geometry": {"type": "Point", "coordinates": [50.28025784476658, 43.74780626281387]}}, {"type": "Feature", "properties": {"norad_id": 49070, "name": "PLEIADES NEO 4", "group": "resource", "lat": -44.05474557822598, "lon": -129.80679636521424, "alt_km": 631.4770156264831, "timestamp": "2025-12-11T10:53:15.542775+00:00", "meta": {"OBJECT_NAME": "PLEIADES NEO 4", "OBJECT_ID": "2021-073E", "EPOCH": "2025-12-09T14:07:00.443712", "MEAN_MOTION": 14.81679595, "ECCENTRICITY": 0.0001363, "INCLINATION": 97.8947, "RA_OF_ASC_NODE": 56.0703, "ARG_OF_PERICENTER": 89.0853, "MEAN_ANOMALY": 271.0516, "EPHEMERIS_TYPE": 0, "CLASSIFICATION_TYPE": "U", "NORAD_CAT_ID": 49070, "ELEMENT_SET_NO": 999, "REV_AT_EPOCH": 23329, "BSTAR": 7.8728e-05, "MEAN_MOTION_DOT": 5.68e-06, "MEAN_MOTION_DDOT": 0}, "tle": {"line1": "1 49070U 21073E   25343.58819958  .00000568  00000+0  78728-4 0  9997", "line2": "2 49070  97.8947  56.0703 0001363  89.0853 271.0516 14.81679595233299"}}, "geometry": {"type": "Point", "coordinates": [-129.80679636521424, -44.05474557822598]}}, {"type": "Feature", "properties": {"norad_id": 49260, "name": "LANDSAT 9", "group": "resource", "lat": -5.311178969288373, "lon": 54.35246634013274, "alt_km": 706.230788465029, "timestamp": "2025-12-11T10:53:15.542786+00:00", "meta": {"OBJECT_NAME": "LANDSAT 9", "OBJECT_ID": "2021-088A", "EPOCH": "2025-12-10T21:43:40.110240", "MEAN_MOTION": 14.57127299, "ECCENTRICITY": 0.0001124, "INCLINATION": 98.2097, "RA_OF_ASC_NODE": 53.0431, "ARG_OF_PERICENTER": 95.249, "MEAN_ANOMALY": 264.8836, "EPHEMERIS_TYPE": 0, "CLASSIFICATION_TYPE": "U", "NORAD_CAT_ID": 49260, "ELEMENT_SET_NO": 999, "REV_AT_EPOCH": 22358, "BSTAR": 0.00016389, "MEAN_MOTION_DOT": 6.93e-06, "MEAN_MOTION_DDOT": 0}, "tle": {"line1": "1 49260U 21088A   25344.90532535  .00000693  00000+0  16389-3 0  9997", "line2": "2 49260  98.2097  53.0431 0001124  95.2490 264.8836 14.57127299223585"}}, "geometry": {"type": "Point", "coordinates": [54.35246634013274, -5.311178969288373]}}]}